HAWK-8A                 
1 59443U 24066B   26068.40724718  .00002325  00000+0  20899-3 0  9990
2 59443  45.5937  72.3645 0004214 254.4969 105.5447 14.98766556104869
STARLINK-34432          
1 64426U 25129Q   26068.39847058 -.00001674  00000+0 -13251-3 0  9991
2 64426  70.0028  75.1898 0002962 245.8754 114.2096 14.98326888 41187
